NORAD_CAT_ID,OBJECT_NAME,OBJECT_TYPE,EPOCH,MEAN_MOTION,ECCENTRICITY,INCLINATION,RA_OF_ASC_NODE,ARG_OF_PERICENTER,MEAN_ANOMALY,BSTAR,MEAN_MOTION_DOT,MEAN_MOTION_DDOT,TLE_LINE0,TLE_LINE1,TLE_LINE2,SEMIMAJOR_AXIS,PERIOD,APOGEE,PERIGEE,DECAYED
51995.0,STARLINK-3636,PAYLOAD,2024-04-16 15:59:03,15.08846799,0.0001093,53.2163,245.7324,96.8957,263.2159,0.00016865,2.398e-05,0.0,0 STARLINK-3636,1 51995U 22025AR  24107.66601622  .00002398  00000-0  16865-3 0  9994,2 51995  53.2163 245.7324 0001093  96.8957 263.2159 15.08846799117953,6917.86,95.437,540.481,538.968,0.0
51995.0,STARLINK-3636,PAYLOAD,2024-04-17 12:39:04,15.08838859,0.0001169,53.2149,241.8686,97.1886,262.9239,-4.936e-06,-3.66e-06,0.0,0 STARLINK-3636,1 51995U 22025AR  24108.52713918 -.00000366  00000-0 -49360-5 0  9995,2 51995  53.2149 241.8686 0001169  97.1886 262.9239 15.08838859118082,6917.884,95.438,540.558,538.94,0.0
51995.0,STARLINK-3636,PAYLOAD,2024-04-17 14:14:27,15.08840098,0.0001299,53.2162,241.5672,91.1109,269.0031,4.6789e-05,4.57e-06,0.0,0 STARLINK-3636,1 51995U 22025AR  24108.59337914  .00000457  00000-0  46789-4 0  9990,2 51995  53.2162 241.5672 0001299  91.1109 269.0031 15.08840098116573,6917.88,95.438,540.644,538.846,0.0
51995.0,STARLINK-3636,PAYLOAD,2024-04-18 12:29:52,15.08830051,0.0001346,53.2164,237.4049,84.7822,275.3324,-5.1803e-05,-1.112e-05,0.0,0 STARLINK-3636,1 51995U 22025AR  24109.52074739 -.00001112  00000-0 -51803-4 0  9991,2 51995  53.2164 237.4049 0001346  84.7822 275.3324 15.08830051118238,6917.911,95.438,540.707,538.845,0.0
51995.0,STARLINK-3636,PAYLOAD,2024-04-18 14:05:15,15.08831095,0.0001299,53.2169,237.1081,98.6712,261.4428,1.6175e-05,-3e-07,0.0,0 STARLINK-3636,1 51995U 22025AR  24109.58698997 -.00000030  00000-0  16175-4 0  9995,2 51995  53.2169 237.1081 0001299  98.6712 261.4428 15.08831095116727,6917.908,95.438,540.671,538.874,0.0
51995.0,STARLINK-3636,PAYLOAD,2024-04-19 13:56:03,15.08830003,0.0001486,53.2167,232.6452,97.1395,262.9767,0.00012402,1.686e-05,0.0,0 STARLINK-3636,1 51995U 22025AR  24110.58059392  .00001686  00000-0  12402-3 0  9992,2 51995  53.2167 232.6452 0001486  97.1395 262.9767 15.08830003116872,6917.911,95.438,540.804,538.748,0.0
51995.0,STARLINK-3636,PAYLOAD,2024-04-19 17:06:48,15.08845957,0.0001271,53.2172,232.0517,89.8904,270.2234,0.00020944,3.047e-05,0.0,0 STARLINK-3636,1 51995U 22025AR  24110.71306307  .00003047  00000-0  20944-3 0  9991,2 51995  53.2172 232.0517 0001271  89.8904 270.2234 15.08845957118417,6917.862,95.437,540.606,538.848,0.0
51995.0,STARLINK-3636,PAYLOAD,2024-04-20 12:11:23,15.088721,0.0001028,53.2173,228.4833,99.8724,260.2385,0.00041303,6.297e-05,0.0,0 STARLINK-3636,1 51995U 22025AR  24111.50790907  .00006297  00000-0  41303-3 0  9994,2 51995  53.2173 228.4833 0001028  99.8724 260.2385 15.08872100118538,6917.782,95.436,540.358,538.936,0.0
51995.0,STARLINK-3636,PAYLOAD,2024-04-20 13:46:49,15.08821657,0.000118,53.2166,228.1853,70.2843,289.8277,-0.00027904,-4.724e-05,0.0,0 STARLINK-3636,1 51995U 22025AR  24111.57417955 -.00004724  00000-0 -27904-3 0  9996,2 51995  53.2166 228.1853 0001180  70.2843 289.8277 15.08821657117024,6917.936,95.439,540.618,538.985,0.0
51995.0,STARLINK-3636,PAYLOAD,2024-04-20 16:57:35,15.08825802,0.0001144,53.2173,227.592,110.1109,250.0006,-0.00022108,-3.803e-05,0.0,0 STARLINK-3636,1 51995U 22025AR  24111.70665701 -.00003803  00000-0 -22108-3 0  9993,2 51995  53.2173 227.5920 0001144 110.1109 250.0006 15.08825802118565,6917.924,95.438,540.58,538.997,0.0
51995.0,STARLINK-3636,PAYLOAD,2024-04-21 13:37:36,15.08831759,0.0001068,53.2151,223.7281,96.8906,263.2208,-0.000288,-4.867e-05,0.0,0 STARLINK-3636,1 51995U 22025AR  24112.56778014 -.00004867  00000-0 -28800-3 0  9996,2 51995  53.2151 223.7281 0001068  96.8906 263.2208 15.08831759117173,6917.906,95.438,540.509,539.032,0.0
51995.0,STARLINK-3636,PAYLOAD,2024-04-21 15:12:59,15.08832254,0.0001409,53.2169,223.4321,83.9357,276.1796,-0.00023479,-4.022e-05,0.0,0 STARLINK-3636,1 51995U 22025AR  24112.63402496 -.00004022  00000-0 -23479-3 0  9992,2 51995  53.2169 223.4321 0001409  83.9357 276.1796 15.08832254118706,6917.904,95.438,540.744,538.794,0.0
51995.0,STARLINK-3636,PAYLOAD,2024-04-22 16:39:10,15.08830516,0.0001082,53.2163,218.6683,106.3286,253.7826,0.00043303,6.609e-05,0.0,0 STARLINK-3636,1 51995U 22025AR  24113.69387125  .00006609  00000-0  43303-3 0  9999,2 51995  53.2163 218.6683 0001082 106.3286 253.7826 15.08830516118866,6917.909,95.438,540.523,539.026,0.0
51995.0,STARLINK-3636,PAYLOAD,2024-04-23 13:19:11,15.08834957,0.0001313,53.2177,214.7996,83.1389,276.9752,0.00022463,3.288e-05,0.0,0 STARLINK-3636,1 51995U 22025AR  24114.55499707  .00003288  00000-0  22463-3 0  9999,2 51995  53.2177 214.7996 0001313  83.1389 276.9752 15.08834957117472,6917.896,95.438,540.669,538.852,0.0
51995.0,STARLINK-3636,PAYLOAD,2024-04-24 11:34:36,15.08826828,0.0001418,53.2167,210.6339,86.0317,274.0837,0.00034494,5.204e-05,0.0,0 STARLINK-3636,1 51995U 22025AR  24115.48236448  .00005204  00000-0  34494-3 0  9990,2 51995  53.2167 210.6339 0001418  86.0317 274.0837 15.08826828119132,6917.921,95.438,540.767,538.805,0.0
51995.0,STARLINK-3636,PAYLOAD,2024-04-24 13:09:59,15.08833041,0.0001471,53.2168,210.3367,77.7291,282.3866,0.00016329,2.311e-05,0.0,0 STARLINK-3636,1 51995U 22025AR  24115.54860213  .00002311  00000-0  16329-3 0  9993,2 51995  53.2168 210.3367 0001471  77.7291 282.3866 15.08833041117629,6917.902,95.438,540.784,538.749,0.0
51995.0,STARLINK-3636,PAYLOAD,2024-04-25 13:00:46,15.08832865,0.0001386,53.2171,205.8776,88.1149,272.0002,6.5507e-05,7.55e-06,0.0,0 STARLINK-3636,1 51995U 22025AR  24116.54220597  .00000755  00000-0  65507-4 0  9992,2 51995  53.2171 205.8776 0001386  88.1149 272.0002 15.08832865119295,6917.902,95.438,540.726,538.808,0.0
51995.0,STARLINK-3636,PAYLOAD,2024-04-26 12:51:33,15.08844617,0.00014,53.2172,201.4289,97.6115,262.5036,3.9902e-05,3.47e-06,0.0,0 STARLINK-3636,1 51995U 22025AR  24117.53580171  .00000347  00000-0  39902-4 0  9996,2 51995  53.2172 201.4289 0001400  97.6115 262.5036 15.08844617119448,6917.866,95.437,540.7,538.763,0.0
51995.0,STARLINK-3636,PAYLOAD,2024-04-26 22:23:51,15.08853818,0.0001406,53.2172,199.642,97.7248,262.3903,0.00021593,3.152e-05,0.0,0 STARLINK-3636,1 51995U 22025AR  24117.93323129  .00003152  00000-0  21593-3 0  9991,2 51995  53.2172 199.6420 0001406  97.7248 262.3903 15.08853818117988,6917.838,95.437,540.676,538.731,0.0
51995.0,STARLINK-3636,PAYLOAD,2024-04-27 12:42:20,15.0882612,0.0001436,53.2161,196.9663,93.3512,266.7645,-0.00014886,-2.655e-05,0.0,0 STARLINK-3636,1 51995U 22025AR  24118.52940395 -.00002655  00000-0 -14886-3 0  9993,2 51995  53.2161 196.9663 0001436  93.3512 266.7645 15.08826120119590,6917.923,95.438,540.781,538.794,0.0
51995.0,STARLINK-3636,PAYLOAD,2024-04-27 22:14:39,15.08832616,0.000139,53.2161,195.182,92.8038,267.3113,-6.9593e-05,-1.395e-05,0.0,0 STARLINK-3636,1 51995U 22025AR  24118.92684228 -.00001395  00000-0 -69593-4 0  9993,2 51995  53.2161 195.1820 0001390  92.8038 267.3113 15.08832616118135,6917.903,95.438,540.73,538.806,0.0
51995.0,STARLINK-3636,PAYLOAD,2024-04-28 04:36:11,15.08828625,0.0001398,53.2158,193.9954,91.9647,268.1505,-0.0002553,-4.347e-05,0.0,0 STARLINK-3636,1 51995U 22025AR  24119.19180245 -.00004347  00000-0 -25530-3 0  9995,2 51995  53.2158 193.9954 0001398  91.9647 268.1505 15.08828625119690,6917.915,95.438,540.747,538.813,0.0
51995.0,STARLINK-3636,PAYLOAD,2024-04-28 12:33:07,15.08831153,0.0001427,53.2152,192.5059,94.5335,265.5821,-0.00015926,-2.821e-05,0.0,0 STARLINK-3636,1 51995U 22025AR  24119.52300663 -.00002821  00000-0 -15926-3 0  9993,2 51995  53.2152 192.5059 0001427  94.5335 265.5821 15.08831153118221,6917.907,95.438,540.76,538.785,0.0
51995.0,STARLINK-3636,PAYLOAD,2024-04-28 22:05:26,15.08841982,0.0001446,53.2157,190.7221,95.1905,264.9252,2.4365e-05,1e-06,0.0,0 STARLINK-3636,1 51995U 22025AR  24119.92044257  .00000100  00000-0  24365-4 0  9995,2 51995  53.2157 190.7221 0001446  95.1905 264.9252 15.08841982118286,6917.874,95.437,540.74,538.739,0.0
51995.0,STARLINK-3636,PAYLOAD,2024-04-29 04:26:58,15.08842193,0.00014,53.2154,189.5329,95.6586,264.4566,6.2499e-05,7.07e-06,0.0,0 STARLINK-3636,1 51995U 22025AR  24120.18540286  .00000707  00000-0  62499-4 0  9991,2 51995  53.2154 189.5329 0001400  95.6586 264.4566 15.08842193119849,6917.874,95.437,540.707,538.77,0.0
51995.0,STARLINK-3636,PAYLOAD,2024-04-29 10:48:31,15.0884164,0.0001374,53.2148,188.3432,95.5498,264.5651,0.00026841,3.987e-05,0.0,0 STARLINK-3636,1 51995U 22025AR  24120.45036537  .00003987  00000-0  26841-3 0  9993,2 51995  53.2148 188.3432 0001374  95.5498 264.5651 15.08841640118363,6917.875,95.437,540.691,538.79,0.0
51995.0,STARLINK-3636,PAYLOAD,2024-04-29 21:56:13,15.08851597,0.0001458,53.2148,186.2617,93.165,266.9509,0.00055249,8.519e-05,0.0,0 STARLINK-3636,1 51995U 22025AR  24120.91404365  .00008519  00000-0  55249-3 0  9992,2 51995  53.2148 186.2617 0001458  93.1650 266.9509 15.08851597118430,6917.845,95.437,540.719,538.701,0.0
51995.0,STARLINK-3636,PAYLOAD,2024-04-30 10:39:18,15.08846623,0.0001531,53.2155,183.883,96.3586,263.7581,0.00029798,4.458e-05,0.0,0 STARLINK-3636,1 51995U 22025AR  24121.44396351  .00004458  00000-0  29798-3 0  9994,2 51995  53.2155 183.8830 0001531  96.3586 263.7581 15.08846623120031,6917.86,95.437,540.784,538.666,0.0
51995.0,STARLINK-3636,PAYLOAD,2024-05-01 10:30:05,15.08846428,0.0001268,53.2148,179.4238,84.5543,275.5594,0.00013741,1.9e-05,0.0,0 STARLINK-3636,1 51995U 22025AR  24122.43756027  .00001900  00000-0  13741-3 0  9994,2 51995  53.2148 179.4238 0001268  84.5543 275.5594 15.08846428120189,6917.861,95.437,540.603,538.849,0.0
51995.0,STARLINK-3636,PAYLOAD,2024-05-02 03:59:19,15.08837813,0.0001245,53.2147,176.1521,84.9444,275.169,0.00029913,4.476e-05,0.0,0 STARLINK-3636,1 51995U 22025AR  24123.16620291  .00004476  00000-0  29913-3 0  9997,2 51995  53.2147 176.1521 0001245  84.9444 275.1690 15.08837813120299,6917.887,95.438,540.613,538.891,0.0
